[{"OBJECT_NAME":"EUTELSAT 117 WEST A","OBJECT_ID":"2013-012A","EPOCH":"2026-03-06T13:24:07.687584","MEAN_MOTION":1.00271445,"ECCENTRICITY":0.00029135,"INCLINATION":0.0494,"RA_OF_ASC_NODE":296.3043,"ARG_OF_PERICENTER":53.3758,"MEAN_ANOMALY":258.8115,"EPHEMERIS_TYPE":0,"CLASSIFICATION_TYPE":"U","NORAD_CAT_ID":39122,"ELEMENT_SET_NO":999,"REV_AT_EPOCH":4740,"BSTAR":0,"MEAN_MOTION_DOT":-1.7e-7,"MEAN_MOTION_DDOT":0},{"OBJECT_NAME":"ANIK G1","OBJECT_ID":"2013-014A","EPOCH":"2026-03-06T13:26:52.424736","MEAN_MOTION":1.00272006,"ECCENTRICITY":0.00029337,"INCLINATION":0.0497,"RA_OF_ASC_NODE":268.7446,"ARG_OF_PERICENTER":57.826,"MEAN_ANOMALY":292.1094,"EPHEMERIS_TYPE":0,"CLASSIFICATION_TYPE":"U","NORAD_CAT_ID":39127,"ELEMENT_SET_NO":999,"REV_AT_EPOCH":4722,"BSTAR":0,"MEAN_MOTION_DOT":-7.8e-7,"MEAN_MOTION_DDOT":0},{"OBJECT_NAME":"ZHONGXING-11","OBJECT_ID":"2013-020A","EPOCH":"2026-03-06T20:53:38.702976","MEAN_MOTION":1.0027155,"ECCENTRICITY":7.37e-5,"INCLINATION":0.0116,"RA_OF_ASC_NODE":283.8258,"ARG_OF_PERICENTER":78.0771,"MEAN_ANOMALY":214.0267,"EPHEMERIS_TYPE":0,"CLASSIFICATION_TYPE":"U","NORAD_CAT_ID":39157,"ELEMENT_SET_NO":999,"REV_AT_EPOCH":4687,"BSTAR":0,"MEAN_MOTION_DOT":-2.94e-6,"MEAN_MOTION_DDOT":0},{"OBJECT_NAME":"EUTELSAT 7B","OBJECT_ID":"2013-022A","EPOCH":"2026-03-06T19:07:34.754592","MEAN_MOTION":1.00273281,"ECCENTRICITY":0.0006336,"INCLINATION":0.0682,"RA_OF_ASC_NODE":356.6397,"ARG_OF_PERICENTER":359.7438,"MEAN_ANOMALY":102.0047,"EPHEMERIS_TYPE":0,"CLASSIFICATION_TYPE":"U","NORAD_CAT_ID":39163,"ELEMENT_SET_NO":999,"REV_AT_EPOCH":4692,"BSTAR":0,"MEAN_MOTION_DOT":4.5e-7,"MEAN_MOTION_DDOT":0},{"OBJECT_NAME":"WGS F5 (USA 243)","OBJECT_ID":"2013-024A","EPOCH":"2026-03-06T18:50:36.382848","MEAN_MOTION":1.0027239,"ECCENTRICITY":3.64e-5,"INCLINATION":0.0054,"RA_OF_ASC_NODE":160.7172,"ARG_OF_PERICENTER":235.4367,"MEAN_ANOMALY":358.5013,"EPHEMERIS_TYPE":0,"CLASSIFICATION_TYPE":"U","NORAD_CAT_ID":39168,"ELEMENT_SET_NO":999,"REV_AT_EPOCH":4614,"BSTAR":0,"MEAN_MOTION_DOT":-2.88e-6,"MEAN_MOTION_DDOT":0},{"OBJECT_NAME":"SES-6","OBJECT_ID":"2013-026A","EPOCH":"2026-03-06T18:53:58.560576","MEAN_MOTION":1.00271559,"ECCENTRICITY":0.000186,"INCLINATION":0.0608,"RA_OF_ASC_NODE":290.5993,"ARG_OF_PERICENTER":68.2463,"MEAN_ANOMALY":48.6292,"EPHEMERIS_TYPE":0,"CLASSIFICATION_TYPE":"U","NORAD_CAT_ID":39172,"ELEMENT_SET_NO":999,"REV_AT_EPOCH":4669,"BSTAR":0,"MEAN_MOTION_DOT":-2.65e-6,"MEAN_MOTION_DDOT":0},{"OBJECT_NAME":"IRNSS-1A","OBJECT_ID":"2013-034A","EPOCH":"2026-03-03T14:19:51.811680","MEAN_MOTION":1.00269823,"ECCENTRICITY":0.0017825,"INCLINATION":35.4874,"RA_OF_ASC_NODE":65.3779,"ARG_OF_PERICENTER":190.7092,"MEAN_ANOMALY":175.2371,"EPHEMERIS_TYPE":0,"CLASSIFICATION_TYPE":"U","NORAD_CAT_ID":39199,"ELEMENT_SET_NO":999,"REV_AT_EPOCH":4631,"BSTAR":0,"MEAN_MOTION_DOT":8.1e-7,"MEAN_MOTION_DDOT":0},{"OBJECT_NAME":"MUOS-2","OBJECT_ID":"2013-036A","EPOCH":"2026-03-04T02:52:36.552864","MEAN_MOTION":1.00273466,"ECCENTRICITY":0.0053138,"INCLINATION":4.7853,"RA_OF_ASC_NODE":45.3224,"ARG_OF_PERICENTER":184.1359,"MEAN_ANOMALY":147.5681,"EPHEMERIS_TYPE":0,"CLASSIFICATION_TYPE":"U","NORAD_CAT_ID":39206,"ELEMENT_SET_NO":999,"REV_AT_EPOCH":4613,"BSTAR":0,"MEAN_MOTION_DOT":-2.2e-7,"MEAN_MOTION_DDOT":0},{"OBJECT_NAME":"ALPHASAT","OBJECT_ID":"2013-038A","EPOCH":"2026-03-06T14:04:33.810816","MEAN_MOTION":1.00270928,"ECCENTRICITY":0.00019523,"INCLINATION":2.982,"RA_OF_ASC_NODE":2.1985,"ARG_OF_PERICENTER":4.7908,"MEAN_ANOMALY":33.3204,"EPHEMERIS_TYPE":0,"CLASSIFICATION_TYPE":"U","NORAD_CAT_ID":39215,"ELEMENT_SET_NO":999,"REV_AT_EPOCH":4299,"BSTAR":0,"MEAN_MOTION_DOT":1.31e-6,"MEAN_MOTION_DDOT":0},{"OBJECT_NAME":"INSAT-3D","OBJECT_ID":"2013-038B","EPOCH":"2026-03-06T18:55:38.813952","MEAN_MOTION":1.00272492,"ECCENTRICITY":0.0001687,"INCLINATION":1.6614,"RA_OF_ASC_NODE":83.8811,"ARG_OF_PERICENTER":248.1233,"MEAN_ANOMALY":245.9026,"EPHEMERIS_TYPE":0,"CLASSIFICATION_TYPE":"U","NORAD_CAT_ID":39216,"ELEMENT_SET_NO":999,"REV_AT_EPOCH":4605,"BSTAR":0,"MEAN_MOTION_DOT":-3.42e-6,"MEAN_MOTION_DDOT":0},{"OBJECT_NAME":"WGS F6 (USA 244)","OBJECT_ID":"2013-041A","EPOCH":"2026-03-06T12:23:38.766624","MEAN_MOTION":1.00273313,"ECCENTRICITY":0.00014136,"INCLINATION":0.0192,"RA_OF_ASC_NODE":145.5132,"ARG_OF_PERICENTER":185.7137,"MEAN_ANOMALY":243.716,"EPHEMERIS_TYPE":0,"CLASSIFICATION_TYPE":"U","NORAD_CAT_ID":39222,"ELEMENT_SET_NO":999,"REV_AT_EPOCH":4503,"BSTAR":0,"MEAN_MOTION_DOT":8.5e-7,"MEAN_MOTION_DDOT":0},{"OBJECT_NAME":"ES'HAIL 1","OBJECT_ID":"2013-044A","EPOCH":"2026-03-06T19:12:49.253184","MEAN_MOTION":1.002725,"ECCENTRICITY":0.0003062,"INCLINATION":0.056,"RA_OF_ASC_NODE":1.1371,"ARG_OF_PERICENTER":350.4641,"MEAN_ANOMALY":126.5996,"EPHEMERIS_TYPE":0,"CLASSIFICATION_TYPE":"U","NORAD_CAT_ID":39233,"ELEMENT_SET_NO":999,"REV_AT_EPOCH":4560,"BSTAR":0,"MEAN_MOTION_DOT":1.4e-6,"MEAN_MOTION_DDOT":0},{"OBJECT_NAME":"GSAT-7","OBJECT_ID":"2013-044B","EPOCH":"2026-03-06T13:02:50.694720","MEAN_MOTION":1.0027177,"ECCENTRICITY":0.00064026,"INCLINATION":0.0274,"RA_OF_ASC_NODE":104.5463,"ARG_OF_PERICENTER":189.8165,"MEAN_ANOMALY":139.5948,"EPHEMERIS_TYPE":0,"CLASSIFICATION_TYPE":"U","NORAD_CAT_ID":39234,"ELEMENT_SET_NO":999,"REV_AT_EPOCH":4422,"BSTAR":0,"MEAN_MOTION_DOT":-8.1e-7,"MEAN_MOTION_DDOT":0},{"OBJECT_NAME":"AMOS-4","OBJECT_ID":"2013-045A","EPOCH":"2026-03-06T10:50:38.073984","MEAN_MOTION":1.00271674,"ECCENTRICITY":0.00033059,"INCLINATION":0.0194,"RA_OF_ASC_NODE":142.7375,"ARG_OF_PERICENTER":206.4654,"MEAN_ANOMALY":42.617,"EPHEMERIS_TYPE":0,"CLASSIFICATION_TYPE":"U","NORAD_CAT_ID":39237,"ELEMENT_SET_NO":999,"REV_AT_EPOCH":4592,"BSTAR":0,"MEAN_MOTION_DOT":3.0e-8,"MEAN_MOTION_DDOT":0},{"OBJECT_NAME":"AEHF-3 (USA 246)","OBJECT_ID":"2013-050A","EPOCH":"2026-03-06T13:22:00.391872","MEAN_MOTION":1.00273315,"ECCENTRICITY":0.00916695,"INCLINATION":5.041,"RA_OF_ASC_NODE":68.1301,"ARG_OF_PERICENTER":187.9715,"MEAN_ANOMALY":344.4206,"EPHEMERIS_TYPE":0,"CLASSIFICATION_TYPE":"U","NORAD_CAT_ID":39256,"ELEMENT_SET_NO":999,"REV_AT_EPOCH":4462,"BSTAR":0,"MEAN_MOTION_DOT":2.7e-7,"MEAN_MOTION_DDOT":0},{"OBJECT_NAME":"ASTRA 2E","OBJECT_ID":"2013-056A","EPOCH":"2026-03-06T19:13:41.670336","MEAN_MOTION":1.00273237,"ECCENTRICITY":0.0002179,"INCLINATION":0.0732,"RA_OF_ASC_NODE":34.8304,"ARG_OF_PERICENTER":306.126,"MEAN_ANOMALY":140.4556,"EPHEMERIS_TYPE":0,"CLASSIFICATION_TYPE":"U","NORAD_CAT_ID":39285,"ELEMENT_SET_NO":999,"REV_AT_EPOCH":4539,"BSTAR":0,"MEAN_MOTION_DOT":1.47e-6,"MEAN_MOTION_DDOT":0},{"OBJECT_NAME":"FM-6","OBJECT_ID":"2013-058A","EPOCH":"2026-03-06T13:24:22.664160","MEAN_MOTION":1.00273294,"ECCENTRICITY":0.0003132,"INCLINATION":0.0219,"RA_OF_ASC_NODE":132.128,"ARG_OF_PERICENTER":55.3123,"MEAN_ANOMALY":61.761,"EPHEMERIS_TYPE":0,"CLASSIFICATION_TYPE":"U","NORAD_CAT_ID":39360,"ELEMENT_SET_NO":999,"REV_AT_EPOCH":4504,"BSTAR":0,"MEAN_MOTION_DOT":-2.1e-7,"MEAN_MOTION_DDOT":0},{"OBJECT_NAME":"RADUGA-1M 3","OBJECT_ID":"2013-062A","EPOCH":"2026-03-06T14:07:33.523680","MEAN_MOTION":1.00272495,"ECCENTRICITY":2.541e-5,"INCLINATION":5.7009,"RA_OF_ASC_NODE":73.6516,"ARG_OF_PERICENTER":312.0728,"MEAN_ANOMALY":25.4629,"EPHEMERIS_TYPE":0,"CLASSIFICATION_TYPE":"U","NORAD_CAT_ID":39375,"ELEMENT_SET_NO":999,"REV_AT_EPOCH":4507,"BSTAR":0,"MEAN_MOTION_DOT":1.51e-6,"MEAN_MOTION_DDOT":0},{"OBJECT_NAME":"SES-8","OBJECT_ID":"2013-071A","EPOCH":"2026-03-06T19:32:39.850368","MEAN_MOTION":1.00272372,"ECCENTRICITY":0.0001763,"INCLINATION":0.0521,"RA_OF_ASC_NODE":270.9904,"ARG_OF_PERICENTER":104.7767,"MEAN_ANOMALY":176.9215,"EPHEMERIS_TYPE":0,"CLASSIFICATION_TYPE":"U","NORAD_CAT_ID":39460,"ELEMENT_SET_NO":999,"REV_AT_EPOCH":4341,"BSTAR":0,"MEAN_MOTION_DOT":-2.73e-6,"MEAN_MOTION_DDOT":0},{"OBJECT_NAME":"INMARSAT 5-F1","OBJECT_ID":"2013-073A","EPOCH":"2026-03-06T14:40:32.807712","MEAN_MOTION":1.0027286,"ECCENTRICITY":2.194e-5,"INCLINATION":0.021,"RA_OF_ASC_NODE":134.4796,"ARG_OF_PERICENTER":277.1842,"MEAN_ANOMALY":35.3532,"EPHEMERIS_TYPE":0,"CLASSIFICATION_TYPE":"U","NORAD_CAT_ID":39476,"ELEMENT_SET_NO":999,"REV_AT_EPOCH":4454,"BSTAR":0,"MEAN_MOTION_DOT":2.4e-7,"MEAN_MOTION_DDOT":0},{"OBJECT_NAME":"TKSAT-1 (TUPAC KATARI)","OBJECT_ID":"2013-075A","EPOCH":"2026-03-06T13:32:36.874752","MEAN_MOTION":1.00272639,"ECCENTRICITY":0.00030133,"INCLINATION":0.0506,"RA_OF_ASC_NODE":313.5786,"ARG_OF_PERICENTER":28.9534,"MEAN_ANOMALY":297.7054,"EPHEMERIS_TYPE":0,"CLASSIFICATION_TYPE":"U","NORAD_CAT_ID":39481,"ELEMENT_SET_NO":999,"REV_AT_EPOCH":4457,"BSTAR":0,"MEAN_MOTION_DOT":-1.99e-6,"MEAN_MOTION_DDOT":0},{"OBJECT_NAME":"EXPRESS-AM5","OBJECT_ID":"2013-077A","EPOCH":"2026-03-06T12:54:41.178240","MEAN_MOTION":1.00271165,"ECCENTRICITY":0.00023834,"INCLINATION":0.0137,"RA_OF_ASC_NODE":223.9499,"ARG_OF_PERICENTER":104.5174,"MEAN_ANOMALY":169.4745,"EPHEMERIS_TYPE":0,"CLASSIFICATION_TYPE":"U","NORAD_CAT_ID":39487,"ELEMENT_SET_NO":999,"REV_AT_EPOCH":4533,"BSTAR":0,"MEAN_MOTION_DOT":-2.84e-6,"MEAN_MOTION_DDOT":0},{"OBJECT_NAME":"GSAT-14","OBJECT_ID":"2014-001A","EPOCH":"2026-03-06T13:02:50.693856","MEAN_MOTION":1.00271895,"ECCENTRICITY":0.00044704,"INCLINATION":0.0336,"RA_OF_ASC_NODE":261.6549,"ARG_OF_PERICENTER":59.9566,"MEAN_ANOMALY":112.3158,"EPHEMERIS_TYPE":0,"CLASSIFICATION_TYPE":"U","NORAD_CAT_ID":39498,"ELEMENT_SET_NO":999,"REV_AT_EPOCH":4434,"BSTAR":0,"MEAN_MOTION_DOT":-8.1e-7,"MEAN_MOTION_DDOT":0},{"OBJECT_NAME":"THAICOM 6","OBJECT_ID":"2014-002A","EPOCH":"2026-03-06T19:27:55.304928","MEAN_MOTION":1.00272776,"ECCENTRICITY":0.0001977,"INCLINATION":0.0311,"RA_OF_ASC_NODE":136.6888,"ARG_OF_PERICENTER":276.3122,"MEAN_ANOMALY":121.9979,"EPHEMERIS_TYPE":0,"CLASSIFICATION_TYPE":"U","NORAD_CAT_ID":39500,"ELEMENT_SET_NO":999,"REV_AT_EPOCH":4443,"BSTAR":0,"MEAN_MOTION_DOT":-1.24e-6,"MEAN_MOTION_DDOT":0}]
